[Satellite]
VERSION=1.1
NAME=AKEBONO (EXOS-D)
NICKNAME=AKEBONO (EXOS-D)
TLE1=1 19822U 89016A   15055.32018014  .00055054  81838-6  12369-2 0  9997
TLE2=2 19822  75.0443 146.4867 2140930 313.9525 131.9847 11.18619349812467
